start=new Date('2021-10-01T00:00:00.000Z').valueOf();
sats=[{"RA_OF_ASC_NODE":"209.2681","TIME_SYSTEM":"UTC","SEMIMAJOR_AXIS":"6925.355","ARG_OF_PERICENTER":"60.6178","RCS_SIZE":"LARGE","PERIOD":"95.592","APOAPSIS":"548.349","EPOCH":"2021-09-30T12:52:10.512192","CLASSIFICATION_TYPE":"U","GP_ID":"185866715","MEAN_MOTION_DOT":"0.00000419","INCLINATION":"53.0559","TLE_LINE1":"1 48588U 21041AM  21273.53623278  .00000419  00000-0  47064-4 0  9991","CENTER_NAME":"EARTH","DECAY_DATE":null,"ECCENTRICITY":"0.00016310","COUNTRY_CODE":"US","BSTAR":"0.00004706400000","PERIAPSIS":"546.090","MEAN_MOTION":"15.06397965","OBJECT_ID":"2021-041AM","NORAD_CAT_ID":"48588","TLE_LINE2":"2 48588  53.0559 209.2681 0001631  60.6178 299.4974 15.06397965 21300","SITE":"AFETR","OBJECT_NAME":"STARLINK-2244","MEAN_MOTION_DDOT":"0.0000000000000","ELEMENT_SET_NO":"999","OBJECT_TYPE":"PAYLOAD","REV_AT_EPOCH":"2130","LAUNCH_DATE":"2021-05-15","FILE":"3137130","EPHEMERIS_TYPE":"0","MEAN_ELEMENT_THEORY":"SGP4","MEAN_ANOMALY":"299.4974","REF_FRAME":"TEME"},{"TIME_SYSTEM":"UTC","RA_OF_ASC_NODE":"209.8752","APOAPSIS":"548.321","EPOCH":"2021-09-30T09:35:48.344640","PERIOD":"95.592","RCS_SIZE":"LARGE","ARG_OF_PERICENTER":"41.2975","SEMIMAJOR_AXIS":"6925.339","GP_ID":"185862642","CLASSIFICATION_TYPE":"U","BSTAR":"0.00021221000000","ECCENTRICITY":"0.00016130","COUNTRY_CODE":"US","CENTER_NAME":"EARTH","TLE_LINE1":"1 48589U 21041AN  21273.39986510  .00002881  00000-0  21221-3 0  9998","DECAY_DATE":null,"MEAN_MOTION_DOT":"0.00002881","INCLINATION":"53.0542","MEAN_MOTION_DDOT":"0.0000000000000","ELEMENT_SET_NO":"999","OBJECT_TYPE":"PAYLOAD","SITE":"AFETR","TLE_LINE2":"2 48589  53.0542 209.8752 0001613  41.2975 318.8136 15.06403066 20831","OBJECT_NAME":"STARLINK-2245","NORAD_CAT_ID":"48589","OBJECT_ID":"2021-041AN","MEAN_MOTION":"15.06403066","PERIAPSIS":"546.087","LAUNCH_DATE":"2021-05-15","FILE":"3136969","REV_AT_EPOCH":"2083","MEAN_ANOMALY":"318.8136","REF_FRAME":"TEME","MEAN_ELEMENT_THEORY":"SGP4","EPHEMERIS_TYPE":"0"},{"SEMIMAJOR_AXIS":"6925.348","ARG_OF_PERICENTER":"63.2423","RCS_SIZE":"LARGE","PERIOD":"95.592","APOAPSIS":"548.434","EPOCH":"2021-09-30T13:22:42.641472","RA_OF_ASC_NODE":"219.1565","TIME_SYSTEM":"UTC","GP_ID":"185838164","CLASSIFICATION_TYPE":"U","PERIAPSIS":"545.992","NORAD_CAT_ID":"48590","OBJECT_ID":"2021-041AP","MEAN_MOTION":"15.06400257","OBJECT_NAME":"STARLINK-2246","TLE_LINE2":"2 48590  53.0552 219.1565 0001763  63.2423 296.8746 15.06400257 21010","SITE":"AFETR","OBJECT_TYPE":"PAYLOAD","ELEMENT_SET_NO":"999","MEAN_MOTION_DDOT":"0.0000000000000","MEAN_MOTION_DOT":"0.00004839","INCLINATION":"53.0552","TLE_LINE1":"1 48590U 21041AP  21273.55743798  .00004839  00000-0  34350-3 0  9999","DECAY_DATE":null,"CENTER_NAME":"EARTH","COUNTRY_CODE":"US","ECCENTRICITY":"0.00017630","BSTAR":"0.00034350000000","EPHEMERIS_TYPE":"0","MEAN_ELEMENT_THEORY":"SGP4","REF_FRAME":"TEME","MEAN_ANOMALY":"296.8746","REV_AT_EPOCH":"2101","FILE":"3136917","LAUNCH_DATE":"2021-05-15"},{"CLASSIFICATION_TYPE":"U","GP_ID":"185862752","RA_OF_ASC_NODE":"210.2047","TIME_SYSTEM":"UTC","ARG_OF_PERICENTER":"47.3989","SEMIMAJOR_AXIS":"6925.361","RCS_SIZE":"LARGE","PERIOD":"95.592","EPOCH":"2021-09-30T07:49:38.571168","APOAPSIS":"548.392","REV_AT_EPOCH":"2172","LAUNCH_DATE":"2021-05-15","FILE":"3136969","EPHEMERIS_TYPE":"0","MEAN_ELEMENT_THEORY":"SGP4","MEAN_ANOMALY":"312.7142","REF_FRAME":"TEME","INCLINATION":"53.0552","MEAN_MOTION_DOT":"-0.00000581","TLE_LINE1":"1 48591U 21041AQ  21273.32614087 -.00000581  00000-0 -20131-4 0  9998","CENTER_NAME":"EARTH","DECAY_DATE":null,"ECCENTRICITY":"0.00016840","COUNTRY_CODE":"US","BSTAR":"-0.00002013100000","PERIAPSIS":"546.060","NORAD_CAT_ID":"48591","OBJECT_ID":"2021-041AQ","MEAN_MOTION":"15.06395859","TLE_LINE2":"2 48591  53.0552 210.2047 0001684  47.3989 312.7142 15.06395859 21727","SITE":"AFETR","OBJECT_NAME":"STARLINK-2248","MEAN_MOTION_DDOT":"0.0000000000000","OBJECT_TYPE":"PAYLOAD","ELEMENT_SET_NO":"999"},{"GP_ID":"185862100","CLASSIFICATION_TYPE":"U","SEMIMAJOR_AXIS":"6925.339","ARG_OF_PERICENTER":"61.3650","RCS_SIZE":"MEDIUM","PERIOD":"95.592","EPOCH":"2021-09-30T06:12:45.566208","APOAPSIS":"548.220","RA_OF_ASC_NODE":"220.5022","TIME_SYSTEM":"UTC","EPHEMERIS_TYPE":"0","MEAN_ELEMENT_THEORY":"SGP4","REF_FRAME":"TEME","MEAN_ANOMALY":"298.7486","REV_AT_EPOCH":"2067","FILE":"3136969","LAUNCH_DATE":"2021-05-15","PERIAPSIS":"546.188","OBJECT_ID":"2021-041AR","MEAN_MOTION":"15.06403088","NORAD_CAT_ID":"48592","OBJECT_NAME":"STARLINK-2249","SITE":"AFETR","TLE_LINE2":"2 48592  53.0557 220.5022 0001467  61.3650 298.7486 15.06403088 20671","OBJECT_TYPE":"PAYLOAD","ELEMENT_SET_NO":"999","MEAN_MOTION_DDOT":"0.0000000000000","INCLINATION":"53.0557","MEAN_MOTION_DOT":"0.00002149","TLE_LINE1":"1 48592U 21041AR  21273.25886072  .00002149  00000-0  16310-3 0  9999","DECAY_DATE":null,"CENTER_NAME":"EARTH","COUNTRY_CODE":"US","ECCENTRICITY":"0.00014670","BSTAR":"0.00016310000000"},{"ARG_OF_PERICENTER":"56.4399","SEMIMAJOR_AXIS":"6925.349","RCS_SIZE":"LARGE","PERIOD":"95.592","APOAPSIS":"548.296","EPOCH":"2021-09-30T06:23:22.920864","RA_OF_ASC_NODE":"220.4643","TIME_SYSTEM":"UTC","GP_ID":"185862317","CLASSIFICATION_TYPE":"U","PERIAPSIS":"546.132","MEAN_MOTION":"15.06399826","OBJECT_ID":"2021-041AS","NORAD_CAT_ID":"48593","SITE":"AFETR","TLE_LINE2":"2 48593  53.0552 220.4643 0001562  56.4399 303.6739 15.06399826 20677","OBJECT_NAME":"STARLINK-2250","MEAN_MOTION_DDOT":"0.0000000000000","ELEMENT_SET_NO":"999","OBJECT_TYPE":"PAYLOAD","INCLINATION":"53.0552","MEAN_MOTION_DOT":"0.00000705","CENTER_NAME":"EARTH","TLE_LINE1":"1 48593U 21041AS  21273.26623751  .00000705  00000-0  66224-4 0  9990","DECAY_DATE":null,"ECCENTRICITY":"0.00015620","COUNTRY_CODE":"US","BSTAR":"0.00006622400000","EPHEMERIS_TYPE":"0","MEAN_ELEMENT_THEORY":"SGP4","MEAN_ANOMALY":"303.6739","REF_FRAME":"TEME","REV_AT_EPOCH":"2067","LAUNCH_DATE":"2021-05-15","FILE":"3136969"},{"NORAD_CAT_ID":"48594","OBJECT_ID":"2021-041AT","MEAN_MOTION":"15.09441202","PERIAPSIS":"536.937","MEAN_MOTION_DDOT":"0.0000000000000","ELEMENT_SET_NO":"999","OBJECT_TYPE":"PAYLOAD","SITE":"AFETR","TLE_LINE2":"2 48594  53.0531 188.9355 0001405  54.6581 167.4547 15.09441202  3642","OBJECT_NAME":"STARLINK-2251","TLE_LINE1":"1 48594U 21041AT  21273.58334491  .00032042  00000-0  19891-2 0  9991","CENTER_NAME":"EARTH","DECAY_DATE":null,"INCLINATION":"53.0531","MEAN_MOTION_DOT":"0.00032042","BSTAR":"0.00198910000000","COUNTRY_CODE":"US","ECCENTRICITY":"0.00014050","MEAN_ELEMENT_THEORY":"SGP4","EPHEMERIS_TYPE":"0","MEAN_ANOMALY":"167.4547","REF_FRAME":"TEME","LAUNCH_DATE":"2021-05-15","FILE":"3136969","REV_AT_EPOCH":"364","RCS_SIZE":"LARGE","ARG_OF_PERICENTER":"54.6581","SEMIMAJOR_AXIS":"6916.043","EPOCH":"2021-09-30T14:00:01.000224","APOAPSIS":"538.880","PERIOD":"95.400","RA_OF_ASC_NODE":"188.9355","TIME_SYSTEM":"UTC","CLASSIFICATION_TYPE":"U","GP_ID":"185862534"},{"REV_AT_EPOCH":"2194","FILE":"3136969","LAUNCH_DATE":"2021-05-15","REF_FRAME":"TEME","MEAN_ANOMALY":"287.7272","EPHEMERIS_TYPE":"0","MEAN_ELEMENT_THEORY":"SGP4","ECCENTRICITY":"0.00018590","COUNTRY_CODE":"US","BSTAR":"-0.00007417500000","INCLINATION":"53.0553","MEAN_MOTION_DOT":"-0.00001387","CENTER_NAME":"EARTH","TLE_LINE1":"1 48595U 21041AU  21273.24781056 -.00001387  00000-0 -74175-4 0  9996","DECAY_DATE":null,"OBJECT_NAME":"STARLINK-2252","TLE_LINE2":"2 48595  53.0553 220.5483 0001859  72.3920 287.7272 15.06409788 21943","SITE":"AFETR","OBJECT_TYPE":"PAYLOAD","ELEMENT_SET_NO":"999","MEAN_MOTION_DDOT":"0.0000000000000","PERIAPSIS":"545.896","OBJECT_ID":"2021-041AU","MEAN_MOTION":"15.06409788","NORAD_CAT_ID":"48595","CLASSIFICATION_TYPE":"U","GP_ID":"185862859","TIME_SYSTEM":"UTC","RA_OF_ASC_NODE":"220.5483","PERIOD":"95.592","EPOCH":"2021-09-30T05:56:50.832384","APOAPSIS":"548.471","ARG_OF_PERICENTER":"72.3920","SEMIMAJOR_AXIS":"6925.319","RCS_SIZE":"LARGE"},{"SITE":"AFETR","TLE_LINE2":"2 48596  53.0550 220.4485 0001475  67.9146 292.2000 15.06386859 21130","OBJECT_NAME":"STARLINK-2253","MEAN_MOTION_DDOT":"0.0000000000000","OBJECT_TYPE":"PAYLOAD","ELEMENT_SET_NO":"999","PERIAPSIS":"546.232","NORAD_CAT_ID":"48596","OBJECT_ID":"2021-041AV","MEAN_MOTION":"15.06386859","COUNTRY_CODE":"US","ECCENTRICITY":"0.00014750","BSTAR":"0.00030094000000","INCLINATION":"53.0550","MEAN_MOTION_DOT":"0.00004202","TLE_LINE1":"1 48596U 21041AV  21273.26992501  .00004202  00000-0  30094-3 0  9996","DECAY_DATE":null,"CENTER_NAME":"EARTH","MEAN_ANOMALY":"292.2000","REF_FRAME":"TEME","EPHEMERIS_TYPE":"0","MEAN_ELEMENT_THEORY":"SGP4","REV_AT_EPOCH":"2113","LAUNCH_DATE":"2021-05-15","FILE":"3136969","PERIOD":"95.593","EPOCH":"2021-09-30T06:28:41.520864","APOAPSIS":"548.275","ARG_OF_PERICENTER":"67.9146","SEMIMAJOR_AXIS":"6925.389","RCS_SIZE":"LARGE","TIME_SYSTEM":"UTC","RA_OF_ASC_NODE":"220.4485","CLASSIFICATION_TYPE":"U","GP_ID":"185862426"},{"BSTAR":"-0.00001906800000","ECCENTRICITY":"0.00017060","COUNTRY_CODE":"US","DECAY_DATE":null,"TLE_LINE1":"1 48597U 21041AW  21273.54267729 -.00000566  00000-0 -19068-4 0  9995","CENTER_NAME":"EARTH","INCLINATION":"53.0558","MEAN_MOTION_DOT":"-0.00000566","ELEMENT_SET_NO":"999","OBJECT_TYPE":"PAYLOAD","MEAN_MOTION_DDOT":"0.0000000000000","OBJECT_NAME":"STARLINK-2255","TLE_LINE2":"2 48597  53.0558 219.2278 0001706  61.5968 298.5193 15.06404991 21987","SITE":"AFETR","MEAN_MOTION":"15.06404991","OBJECT_ID":"2021-041AW","NORAD_CAT_ID":"48597","PERIAPSIS":"546.017","FILE":"3137129","LAUNCH_DATE":"2021-05-15","REV_AT_EPOCH":"2198","REF_FRAME":"TEME","MEAN_ANOMALY":"298.5193","MEAN_ELEMENT_THEORY":"SGP4","EPHEMERIS_TYPE":"0","TIME_SYSTEM":"UTC","RA_OF_ASC_NODE":"219.2278","APOAPSIS":"548.380","EPOCH":"2021-09-30T13:01:27.317856","PERIOD":"95.592","RCS_SIZE":"LARGE","SEMIMAJOR_AXIS":"6925.333","ARG_OF_PERICENTER":"61.5968","CLASSIFICATION_TYPE":"U","GP_ID":"185866695"}];
